STARLINK-5727           
1 55587U 23020U   26088.17611535  .00000873  00000+0  42227-4 0  9998
2 55587  42.9982 255.0253 0001338 280.0383  80.0318 15.26751596171890
STARLINK-5728           
1 55588U 23020V   26088.16633184  .00001820  00000+0  79380-4 0  9995
2 55588  43.0003 255.0218 0001572 267.1895  92.8776 15.25913023171895
STARLINK-5697           
1 55589U 23020W   26087.52355129 -.00000209  00000+0  18805-5 0  9992
2 55589  43.0004 258.7907 0001127 267.9890  92.0832 15.26743910171792
STARLINK-5762           
1 55590U 23020X   26088.16247070 -.00000927  00000+0 -24871-4 0  9997
2 55590  43.0015 254.9934 0002343 260.0043 100.0544 15.26746696171894
STARLINK-5760           
1 55591U 23020Y   26088.17351955  .00001368  00000+0  60672-4 0  9994
2 55591  42.9996 255.0748 0001381 272.3760  87.6934 15.26743704171899
STARLINK-5759           
1 55592U 23020Z   26088.00002314  .00038541  00000+0  14034-2 0  9991
2 55592  42.9999 255.8367 0002258 270.9685 305.6243 15.27563111  5741
STARLINK-5703           
1 55593U 23020AA  26088.14583855  .00000590  00000+0  31655-4 0  9994
2 55593  43.0016 254.8700 0001253 272.8997  87.1711 15.26743822171895
STARLINK-5750           
1 55594U 23020AB  26088.15224744  .00003762  00000+0  14975-3 0  9994
2 55594  43.0008 254.9158 0001237 268.0322  92.0387 15.26763435171892
STARLINK-5729           
1 55596U 23020AD  26088.16423017  .00000960  00000+0  45448-4 0  9998
2 55596  43.0015 255.0009 0001290 276.6427  83.4278 15.26745546171895
STARLINK-5743           
1 55597U 23020AE  26088.15448068  .00007898  00000+0  30401-3 0  9990
2 55597  43.0041 243.6800 0001722 272.0608  88.0046 15.26719323172022
STARLINK-5756           
1 55598U 23020AF  26088.16668981 -.00013019  00000+0 -47635-3 0  9991
2 55598  43.0005 244.3099 0001734 264.7467 212.2683 15.26749586  5819
STARLINK-5761           
1 55599U 23020AG  26088.16668981  .00848681  00000+0  30489-1 0  9998
2 55599  42.9997 244.2563 0001368 276.3854 224.7703 15.25615264  5821
STARLINK-5755           
1 55600U 23020AH  26088.16668981  .00842733  00000+0  30534-1 0  9994
2 55600  42.9991 244.0848 0001459 262.1915 317.9078 15.25348465  5763
STARLINK-5744           
1 55601U 23020AJ  26087.79908225  .00007487  00000+0  28807-3 0  9992
2 55601  43.0033 257.4191 0002864 254.9544 105.0991 15.26790806171833
STARLINK-5764           
1 55602U 23020AK  26088.16668981  .00825281  00000+0  29737-1 0  9998
2 55602  42.9992 244.1525 0001411 264.8392 279.8620 15.25582732  5828
STARLINK-5735           
1 55603U 23020AL  26088.16668981  .00510861  00000+0  18031-1 0  9999
2 55603  43.0084 243.8971 0001855 271.1921  30.3904 15.26253689  5760
STARLINK-5748           
1 55604U 23020AM  26087.86147475  .00002022  00000+0  85033-4 0  9990
2 55604  43.0026 231.0497 0001826 266.6592  93.4051 15.26749692172144
