[{"OBJECT_NAME":"STARLINK-5727","OBJECT_ID":"2023-020U","EPOCH":"2026-03-29T04:13:36.366240","MEAN_MOTION":15.26751596,"ECCENTRICITY":0.0001338,"INCLINATION":42.9982,"RA_OF_ASC_NODE":255.0253,"ARG_OF_PERICENTER":280.0383,"MEAN_ANOMALY":80.0318,"EPHEMERIS_TYPE":0,"CLASSIFICATION_TYPE":"U","NORAD_CAT_ID":55587,"ELEMENT_SET_NO":999,"REV_AT_EPOCH":17189,"BSTAR":4.2227e-5,"MEAN_MOTION_DOT":8.73e-6,"MEAN_MOTION_DDOT":0},{"OBJECT_NAME":"STARLINK-5728","OBJECT_ID":"2023-020V","EPOCH":"2026-03-29T03:59:31.070976","MEAN_MOTION":15.25913023,"ECCENTRICITY":0.0001572,"INCLINATION":43.0003,"RA_OF_ASC_NODE":255.0218,"ARG_OF_PERICENTER":267.1895,"MEAN_ANOMALY":92.8776,"EPHEMERIS_TYPE":0,"CLASSIFICATION_TYPE":"U","NORAD_CAT_ID":55588,"ELEMENT_SET_NO":999,"REV_AT_EPOCH":17189,"BSTAR":7.938e-5,"MEAN_MOTION_DOT":1.82e-5,"MEAN_MOTION_DDOT":0},{"OBJECT_NAME":"STARLINK-5697","OBJECT_ID":"2023-020W","EPOCH":"2026-03-28T12:33:54.831456","MEAN_MOTION":15.2674391,"ECCENTRICITY":0.0001127,"INCLINATION":43.0004,"RA_OF_ASC_NODE":258.7907,"ARG_OF_PERICENTER":267.989,"MEAN_ANOMALY":92.0832,"EPHEMERIS_TYPE":0,"CLASSIFICATION_TYPE":"U","NORAD_CAT_ID":55589,"ELEMENT_SET_NO":999,"REV_AT_EPOCH":17179,"BSTAR":1.8805e-6,"MEAN_MOTION_DOT":-2.09e-6,"MEAN_MOTION_DDOT":0},{"OBJECT_NAME":"STARLINK-5762","OBJECT_ID":"2023-020X","EPOCH":"2026-03-29T03:53:57.468480","MEAN_MOTION":15.26746696,"ECCENTRICITY":0.0002343,"INCLINATION":43.0015,"RA_OF_ASC_NODE":254.9934,"ARG_OF_PERICENTER":260.0043,"MEAN_ANOMALY":100.0544,"EPHEMERIS_TYPE":0,"CLASSIFICATION_TYPE":"U","NORAD_CAT_ID":55590,"ELEMENT_SET_NO":999,"REV_AT_EPOCH":17189,"BSTAR":-2.4871e-5,"MEAN_MOTION_DOT":-9.27e-6,"MEAN_MOTION_DDOT":0},{"OBJECT_NAME":"STARLINK-5760","OBJECT_ID":"2023-020Y","EPOCH":"2026-03-29T04:09:52.089120","MEAN_MOTION":15.26743704,"ECCENTRICITY":0.0001381,"INCLINATION":42.9996,"RA_OF_ASC_NODE":255.0748,"ARG_OF_PERICENTER":272.376,"MEAN_ANOMALY":87.6934,"EPHEMERIS_TYPE":0,"CLASSIFICATION_TYPE":"U","NORAD_CAT_ID":55591,"ELEMENT_SET_NO":999,"REV_AT_EPOCH":17189,"BSTAR":6.0672e-5,"MEAN_MOTION_DOT":1.368e-5,"MEAN_MOTION_DDOT":0},{"OBJECT_NAME":"STARLINK-5759","OBJECT_ID":"2023-020Z","EPOCH":"2026-03-29T00:00:01.999296","MEAN_MOTION":15.27563111,"ECCENTRICITY":0.0002258,"INCLINATION":42.9999,"RA_OF_ASC_NODE":255.8367,"ARG_OF_PERICENTER":270.9685,"MEAN_ANOMALY":305.6243,"EPHEMERIS_TYPE":0,"CLASSIFICATION_TYPE":"U","NORAD_CAT_ID":55592,"ELEMENT_SET_NO":999,"REV_AT_EPOCH":574,"BSTAR":0.0014034,"MEAN_MOTION_DOT":0.00038541,"MEAN_MOTION_DDOT":0},{"OBJECT_NAME":"STARLINK-5703","OBJECT_ID":"2023-020AA","EPOCH":"2026-03-29T03:30:00.450720","MEAN_MOTION":15.26743822,"ECCENTRICITY":0.0001253,"INCLINATION":43.0016,"RA_OF_ASC_NODE":254.87,"ARG_OF_PERICENTER":272.8997,"MEAN_ANOMALY":87.1711,"EPHEMERIS_TYPE":0,"CLASSIFICATION_TYPE":"U","NORAD_CAT_ID":55593,"ELEMENT_SET_NO":999,"REV_AT_EPOCH":17189,"BSTAR":3.1655e-5,"MEAN_MOTION_DOT":5.9e-6,"MEAN_MOTION_DDOT":0},{"OBJECT_NAME":"STARLINK-5750","OBJECT_ID":"2023-020AB","EPOCH":"2026-03-29T03:39:14.178816","MEAN_MOTION":15.26763435,"ECCENTRICITY":0.0001237,"INCLINATION":43.0008,"RA_OF_ASC_NODE":254.9158,"ARG_OF_PERICENTER":268.0322,"MEAN_ANOMALY":92.0387,"EPHEMERIS_TYPE":0,"CLASSIFICATION_TYPE":"U","NORAD_CAT_ID":55594,"ELEMENT_SET_NO":999,"REV_AT_EPOCH":17189,"BSTAR":0.00014975,"MEAN_MOTION_DOT":3.762e-5,"MEAN_MOTION_DDOT":0},{"OBJECT_NAME":"STARLINK-5729","OBJECT_ID":"2023-020AD","EPOCH":"2026-03-29T03:56:29.486688","MEAN_MOTION":15.26745546,"ECCENTRICITY":0.000129,"INCLINATION":43.0015,"RA_OF_ASC_NODE":255.0009,"ARG_OF_PERICENTER":276.6427,"MEAN_ANOMALY":83.4278,"EPHEMERIS_TYPE":0,"CLASSIFICATION_TYPE":"U","NORAD_CAT_ID":55596,"ELEMENT_SET_NO":999,"REV_AT_EPOCH":17189,"BSTAR":4.5448e-5,"MEAN_MOTION_DOT":9.6e-6,"MEAN_MOTION_DDOT":0},{"OBJECT_NAME":"STARLINK-5743","OBJECT_ID":"2023-020AE","EPOCH":"2026-03-29T03:42:27.130752","MEAN_MOTION":15.26719323,"ECCENTRICITY":0.0001722,"INCLINATION":43.0041,"RA_OF_ASC_NODE":243.68,"ARG_OF_PERICENTER":272.0608,"MEAN_ANOMALY":88.0046,"EPHEMERIS_TYPE":0,"CLASSIFICATION_TYPE":"U","NORAD_CAT_ID":55597,"ELEMENT_SET_NO":999,"REV_AT_EPOCH":17202,"BSTAR":0.00030401,"MEAN_MOTION_DOT":7.898e-5,"MEAN_MOTION_DDOT":0},{"OBJECT_NAME":"STARLINK-5756","OBJECT_ID":"2023-020AF","EPOCH":"2026-03-29T04:00:01.999584","MEAN_MOTION":15.26749586,"ECCENTRICITY":0.0001734,"INCLINATION":43.0005,"RA_OF_ASC_NODE":244.3099,"ARG_OF_PERICENTER":264.7467,"MEAN_ANOMALY":212.2683,"EPHEMERIS_TYPE":0,"CLASSIFICATION_TYPE":"U","NORAD_CAT_ID":55598,"ELEMENT_SET_NO":999,"REV_AT_EPOCH":581,"BSTAR":-0.00047635,"MEAN_MOTION_DOT":-0.00013019,"MEAN_MOTION_DDOT":0},{"OBJECT_NAME":"STARLINK-5761","OBJECT_ID":"2023-020AG","EPOCH":"2026-03-29T04:00:01.999584","MEAN_MOTION":15.25615264,"ECCENTRICITY":0.0001368,"INCLINATION":42.9997,"RA_OF_ASC_NODE":244.2563,"ARG_OF_PERICENTER":276.3854,"MEAN_ANOMALY":224.7703,"EPHEMERIS_TYPE":0,"CLASSIFICATION_TYPE":"U","NORAD_CAT_ID":55599,"ELEMENT_SET_NO":999,"REV_AT_EPOCH":582,"BSTAR":0.030489,"MEAN_MOTION_DOT":0.00848681,"MEAN_MOTION_DDOT":0},{"OBJECT_NAME":"STARLINK-5755","OBJECT_ID":"2023-020AH","EPOCH":"2026-03-29T04:00:01.999584","MEAN_MOTION":15.25348465,"ECCENTRICITY":0.0001459,"INCLINATION":42.9991,"RA_OF_ASC_NODE":244.0848,"ARG_OF_PERICENTER":262.1915,"MEAN_ANOMALY":317.9078,"EPHEMERIS_TYPE":0,"CLASSIFICATION_TYPE":"U","NORAD_CAT_ID":55600,"ELEMENT_SET_NO":999,"REV_AT_EPOCH":576,"BSTAR":0.030534,"MEAN_MOTION_DOT":0.00842733,"MEAN_MOTION_DDOT":0},{"OBJECT_NAME":"STARLINK-5744","OBJECT_ID":"2023-020AJ","EPOCH":"2026-03-28T19:10:40.706400","MEAN_MOTION":15.26790806,"ECCENTRICITY":0.0002864,"INCLINATION":43.0033,"RA_OF_ASC_NODE":257.4191,"ARG_OF_PERICENTER":254.9544,"MEAN_ANOMALY":105.0991,"EPHEMERIS_TYPE":0,"CLASSIFICATION_TYPE":"U","NORAD_CAT_ID":55601,"ELEMENT_SET_NO":999,"REV_AT_EPOCH":17183,"BSTAR":0.00028806816,"MEAN_MOTION_DOT":7.487e-5,"MEAN_MOTION_DDOT":0},{"OBJECT_NAME":"STARLINK-5764","OBJECT_ID":"2023-020AK","EPOCH":"2026-03-29T04:00:01.999584","MEAN_MOTION":15.25582732,"ECCENTRICITY":0.0001411,"INCLINATION":42.9992,"RA_OF_ASC_NODE":244.1525,"ARG_OF_PERICENTER":264.8392,"MEAN_ANOMALY":279.862,"EPHEMERIS_TYPE":0,"CLASSIFICATION_TYPE":"U","NORAD_CAT_ID":55602,"ELEMENT_SET_NO":999,"REV_AT_EPOCH":582,"BSTAR":0.029737,"MEAN_MOTION_DOT":0.00825281,"MEAN_MOTION_DDOT":0},{"OBJECT_NAME":"STARLINK-5735","OBJECT_ID":"2023-020AL","EPOCH":"2026-03-29T04:00:01.999584","MEAN_MOTION":15.26253689,"ECCENTRICITY":0.0001855,"INCLINATION":43.0084,"RA_OF_ASC_NODE":243.8971,"ARG_OF_PERICENTER":271.1921,"MEAN_ANOMALY":30.3904,"EPHEMERIS_TYPE":0,"CLASSIFICATION_TYPE":"U","NORAD_CAT_ID":55603,"ELEMENT_SET_NO":999,"REV_AT_EPOCH":576,"BSTAR":0.018031,"MEAN_MOTION_DOT":0.00510861,"MEAN_MOTION_DDOT":0},{"OBJECT_NAME":"STARLINK-5748","OBJECT_ID":"2023-020AM","EPOCH":"2026-03-28T20:40:31.418400","MEAN_MOTION":15.26749692,"ECCENTRICITY":0.0001826,"INCLINATION":43.0026,"RA_OF_ASC_NODE":231.0497,"ARG_OF_PERICENTER":266.6592,"MEAN_ANOMALY":93.4051,"EPHEMERIS_TYPE":0,"CLASSIFICATION_TYPE":"U","NORAD_CAT_ID":55604,"ELEMENT_SET_NO":999,"REV_AT_EPOCH":17214,"BSTAR":8.5033e-5,"MEAN_MOTION_DOT":2.022e-5,"MEAN_MOTION_DDOT":0}]
